{"type": "FeatureCollection", "features": [ {"type": "Feature", "properties": {"norad_id": 34464, "name": "COSMOS 2251 DEB", "group": "cosmos-2251-debris", "lat": 15.902766938006966, "lon": -100.38442261768988, "alt_km": 488.52294393981174, "timestamp": "2025-12-09T21:34:11.803914+00:00", "meta": {"OBJECT_NAME": "COSMOS 2251 DEB", "OBJECT_ID": "1993-036TH", "EPOCH": "2025-12-09T08:16:13.821024", "MEAN_MOTION": 15.26277905, "ECCENTRICITY": 0.00167133, "INCLINATION": 73.9907, "RA_OF_ASC_NODE": 85.4834, "ARG_OF_PERICENTER": 262.1565, "MEAN_ANOMALY": 97.7738, "EPHEMERIS_TYPE": 0, "CLASSIFICATION_TYPE": "U", "NORAD_CAT_ID": 34464, "ELEMENT_SET_NO": 999, "REV_AT_EPOCH": 89788, "BSTAR": 0.003892726, "MEAN_MOTION_DOT": 0.00102738, "MEAN_MOTION_DDOT": 0}, "tle": {"line1": "1 34464U 93036TH  25343.34460441  .00102738  00000+0  38927-2 0  9996", "line2": "2 34464  73.9907  85.4834 0016713 262.1565  97.7738 15.26277905897880"}}, "geometry": {"type": "Point", "coordinates": [-100.38442261768988, 15.902766938006966]}}, {"type": "Feature", "properties": {"norad_id": 34468, "name": "COSMOS 2251 DEB", "group": "cosmos-2251-debris", "lat": 59.98466434821837, "lon": -87.22577476468236, "alt_km": 775.2838970729117, "timestamp": "2025-12-09T21:34:11.803925+00:00", "meta": {"OBJECT_NAME": "COSMOS 2251 DEB", "OBJECT_ID": "1993-036TM", "EPOCH": "2025-12-09T16:03:20.955456", "MEAN_MOTION": 14.47612397, "ECCENTRICITY": 0.00763507, "INCLINATION": 74.0129, "RA_OF_ASC_NODE": 122.9569, "ARG_OF_PERICENTER": 268.5033, "MEAN_ANOMALY": 90.7379, "EPHEMERIS_TYPE": 0, "CLASSIFICATION_TYPE": "U", "NORAD_CAT_ID": 34468, "ELEMENT_SET_NO": 999, "REV_AT_EPOCH": 88417, "BSTAR": 0.00061681494, "MEAN_MOTION_DOT": 2.328e-05, "MEAN_MOTION_DDOT": 0}, "tle": {"line1": "1 34468U 93036TM  25343.66899254  .00002328  00000+0  61681-3 0  9991", "line2": "2 34468  74.0129 122.9569 0076350 268.5033  90.7379 14.47612397884179"}}, "geometry": {"type": "Point", "coordinates": [-87.22577476468236, 59.98466434821837]}}, {"type": "Feature", "properties": {"norad_id": 34472, "name": "COSMOS 2251 DEB", "group": "cosmos-2251-debris", "lat": -27.17598069174385, "lon": -68.75925029977418, "alt_km": 785.0346546537739, "timestamp": "2025-12-09T21:34:11.803935+00:00", "meta": {"OBJECT_NAME": "COSMOS 2251 DEB", "OBJECT_ID": "1993-036TR", "EPOCH": "2025-12-08T18:15:08.826912", "MEAN_MOTION": 13.70322213, "ECCENTRICITY": 0.03280903, "INCLINATION": 74.0833, "RA_OF_ASC_NODE": 104.6881, "ARG_OF_PERICENTER": 236.5736, "MEAN_ANOMALY": 120.3611, "EPHEMERIS_TYPE": 0, "CLASSIFICATION_TYPE": "U", "NORAD_CAT_ID": 34472, "ELEMENT_SET_NO": 999, "REV_AT_EPOCH": 83672, "BSTAR": 0.0014639166, "MEAN_MOTION_DOT": 1.867e-05, "MEAN_MOTION_DDOT": 0}, "tle": {"line1": "1 34472U 93036TR  25342.76051883  .00001867  00000+0  14639-2 0  9991", "line2": "2 34472  74.0833 104.6881 0328090 236.5736 120.3611 13.70322213836723"}}, "geometry": {"type": "Point", "coordinates": [-68.75925029977418, -27.17598069174385]}}, {"type": "Feature", "properties": {"norad_id": 34474, "name": "COSMOS 2251 DEB", "group": "cosmos-2251-debris", "lat": -25.875165549210216, "lon": -36.820097836606806, "alt_km": 831.5920002379244, "timestamp": "2025-12-09T21:34:11.803945+00:00", "meta": {"OBJECT_NAME": "COSMOS 2251 DEB", "OBJECT_ID": "1993-036TT", "EPOCH": "2025-12-09T10:18:34.765920", "MEAN_MOTION": 14.06378641, "ECCENTRICITY": 0.01980997, "INCLINATION": 74.0784, "RA_OF_ASC_NODE": 331.9568, "ARG_OF_PERICENTER": 46.6826, "MEAN_ANOMALY": 74.084, "EPHEMERIS_TYPE": 0, "CLASSIFICATION_TYPE": "U", "NORAD_CAT_ID": 34474, "ELEMENT_SET_NO": 999, "REV_AT_EPOCH": 85462, "BSTAR": 0.0026434652, "MEAN_MOTION_DOT": 5.192e-05, "MEAN_MOTION_DDOT": 0}, "tle": {"line1": "1 34474U 93036TT  25343.42956905  .00005192  00000+0  26435-2 0  9998", "line2": "2 34474  74.0784 331.9568 0198099  46.6826  74.0840 14.06378641854625"}}, "geometry": {"type": "Point", "coordinates": [-36.820097836606806, -25.875165549210216]}}, {"type": "Feature", "properties": {"norad_id": 34476, "name": "COSMOS 2251 DEB", "group": "cosmos-2251-debris", "lat": -12.408737625725223, "lon": -89.08914673368453, "alt_km": 1052.5436144218893, "timestamp": "2025-12-09T21:34:11.803956+00:00", "meta": {"OBJECT_NAME": "COSMOS 2251 DEB", "OBJECT_ID": "1993-036TV", "EPOCH": "2025-12-09T08:26:56.603328", "MEAN_MOTION": 13.81975845, "ECCENTRICITY": 0.03196627, "INCLINATION": 74.0055, "RA_OF_ASC_NODE": 88.2137, "ARG_OF_PERICENTER": 308.5323, "MEAN_ANOMALY": 48.7536, "EPHEMERIS_TYPE": 0, "CLASSIFICATION_TYPE": "U", "NORAD_CAT_ID": 34476, "ELEMENT_SET_NO": 999, "REV_AT_EPOCH": 83591, "BSTAR": 0.004409971, "MEAN_MOTION_DOT": 6.974e-05, "MEAN_MOTION_DDOT": 0}, "tle": {"line1": "1 34476U 93036TV  25343.35204402  .00006974  00000+0  44100-2 0  9998", "line2": "2 34476  74.0055  88.2137 0319662 308.5323  48.7536 13.81975845835917"}}, "geometry": {"type": "Point", "coordinates": [-89.08914673368453, -12.408737625725223]}}, {"type": "Feature", "properties": {"norad_id": 34477, "name": "COSMOS 2251 DEB", "group": "cosmos-2251-debris", "lat": 43.92632189457907, "lon": 90.9821930923762, "alt_km": 743.1310656100486, "timestamp": "2025-12-09T21:34:11.803966+00:00", "meta": {"OBJECT_NAME": "COSMOS 2251 DEB", "OBJECT_ID": "1993-036TW", "EPOCH": "2025-12-09T08:27:37.912896", "MEAN_MOTION": 14.5682368, "ECCENTRICITY": 0.00769073, "INCLINATION": 73.9791, "RA_OF_ASC_NODE": 75.9557, "ARG_OF_PERICENTER": 263.7362, "MEAN_ANOMALY": 158.4648, "EPHEMERIS_TYPE": 0, "CLASSIFICATION_TYPE": "U", "NORAD_CAT_ID": 34477, "ELEMENT_SET_NO": 999, "REV_AT_EPOCH": 88576, "BSTAR": 0.0013402483, "MEAN_MOTION_DOT": 6.224e-05, "MEAN_MOTION_DDOT": 0}, "tle": {"line1": "1 34477U 93036TW  25343.35252214  .00006224  00000+0  13402-2 0  9992", "line2": "2 34477  73.9791  75.9557 0076907 263.7362 158.4648 14.56823680885762"}}, "geometry": {"type": "Point", "coordinates": [90.9821930923762, 43.92632189457907]}}, {"type": "Feature", "properties": {"norad_id": 34478, "name": "COSMOS 2251 DEB", "group": "cosmos-2251-debris", "lat": 54.01845321472258, "lon": 169.51464013066345, "alt_km": 547.0125104003382, "timestamp": "2025-12-09T21:34:11.803977+00:00", "meta": {"OBJECT_NAME": "COSMOS 2251 DEB", "OBJECT_ID": "1993-036TX", "EPOCH": "2025-12-09T03:45:23.494752", "MEAN_MOTION": 15.07546679, "ECCENTRICITY": 0.00354336, "INCLINATION": 74.0399, "RA_OF_ASC_NODE": 14.2543, "ARG_OF_PERICENTER": 236.044, "MEAN_ANOMALY": 180.3943, "EPHEMERIS_TYPE": 0, "CLASSIFICATION_TYPE": "U", "NORAD_CAT_ID": 34478, "ELEMENT_SET_NO": 999, "REV_AT_EPOCH": 88919, "BSTAR": 0.0034604726, "MEAN_MOTION_DOT": 0.00053718, "MEAN_MOTION_DDOT": 0}, "tle": {"line1": "1 34478U 93036TX  25343.15652193  .00053718  00000+0  34605-2 0  9999", "line2": "2 34478  74.0399  14.2543 0035433 236.0440 180.3943 15.07546679889199"}}, "geometry": {"type": "Point", "coordinates": [169.51464013066345, 54.01845321472258]}}, {"type": "Feature", "properties": {"norad_id": 34481, "name": "COSMOS 2251 DEB", "group": "cosmos-2251-debris", "lat": 50.56350741755262, "lon": -141.78294442700135, "alt_km": 792.8244445771288, "timestamp": "2025-12-09T21:34:11.803988+00:00", "meta": {"OBJECT_NAME": "COSMOS 2251 DEB", "OBJECT_ID": "1993-036UA", "EPOCH": "2025-12-09T06:11:03.132960", "MEAN_MOTION": 14.32530215, "ECCENTRICITY": 0.0070831, "INCLINATION": 73.9805, "RA_OF_ASC_NODE": 59.836, "ARG_OF_PERICENTER": 234.8477, "MEAN_ANOMALY": 187.628, "EPHEMERIS_TYPE": 0, "CLASSIFICATION_TYPE": "U", "NORAD_CAT_ID": 34481, "ELEMENT_SET_NO": 999, "REV_AT_EPOCH": 87399, "BSTAR": 0.0011903, "MEAN_MOTION_DOT": 3.293e-05, "MEAN_MOTION_DDOT": 0}, "tle": {"line1": "1 34481U 93036UA  25343.25767515  .00003293  00000+0  11903-2 0  9998", "line2": "2 34481  73.9805  59.8360 0070831 234.8477 187.6280 14.32530215873993"}}, "geometry": {"type": "Point", "coordinates": [-141.78294442700135, 50.56350741755262]}}, {"type": "Feature", "properties": {"norad_id": 34482, "name": "COSMOS 2251 DEB", "group": "cosmos-2251-debris", "lat": -69.10183862863916, "lon": -179.46897139234653, "alt_km": 639.1866602720493, "timestamp": "2025-12-09T21:34:11.803999+00:00", "meta": {"OBJECT_NAME": "COSMOS 2251 DEB", "OBJECT_ID": "1993-036UB", "EPOCH": "2025-12-09T02:59:15.251712", "MEAN_MOTION": 14.6905885, "ECCENTRICITY": 0.00453063, "INCLINATION": 74.0366, "RA_OF_ASC_NODE": 230.5914, "ARG_OF_PERICENTER": 291.2458, "MEAN_ANOMALY": 219.3701, "EPHEMERIS_TYPE": 0, "CLASSIFICATION_TYPE": "U", "NORAD_CAT_ID": 34482, "ELEMENT_SET_NO": 999, "REV_AT_EPOCH": 88134, "BSTAR": 0.0022791813, "MEAN_MOTION_DOT": 0.00013586, "MEAN_MOTION_DDOT": 0}, "tle": {"line1": "1 34482U 93036UB  25343.12448208  .00013586  00000+0  22792-2 0  9994", "line2": "2 34482  74.0366 230.5914 0045306 291.2458 219.3701 14.69058850881345"}}, "geometry": {"type": "Point", "coordinates": [-179.46897139234653, -69.10183862863916]}}, {"type": "Feature", "properties": {"norad_id": 34544, "name": "COSMOS 2251 DEB", "group": "cosmos-2251-debris", "lat": -71.4894395788207, "lon": 88.14753916533016, "alt_km": 797.6377767499662, "timestamp": "2025-12-09T21:34:11.804009+00:00", "meta": {"OBJECT_NAME": "COSMOS 2251 DEB", "OBJECT_ID": "1993-036UE", "EPOCH": "2025-12-08T02:32:15.563616", "MEAN_MOTION": 13.54658928, "ECCENTRICITY": 0.03844146, "INCLINATION": 73.9149, "RA_OF_ASC_NODE": 211.5315, "ARG_OF_PERICENTER": 240.8263, "MEAN_ANOMALY": 277.3195, "EPHEMERIS_TYPE": 0, "CLASSIFICATION_TYPE": "U", "NORAD_CAT_ID": 34544, "ELEMENT_SET_NO": 999, "REV_AT_EPOCH": 82819, "BSTAR": 0.00035904708, "MEAN_MOTION_DOT": 3.7e-06, "MEAN_MOTION_DDOT": 0}, "tle": {"line1": "1 34544U 93036UE  25342.10573569  .00000370  00000+0  35905-3 0  9997", "line2": "2 34544  73.9149 211.5315 0384414 240.8263 277.3195 13.54658928828195"}}, "geometry": {"type": "Point", "coordinates": [88.14753916533016, -71.4894395788207]}}]}